NORAD_CAT_ID,OBJECT_NAME,OBJECT_TYPE,EPOCH,MEAN_MOTION,ECCENTRICITY,INCLINATION,RA_OF_ASC_NODE,ARG_OF_PERICENTER,MEAN_ANOMALY,BSTAR,MEAN_MOTION_DOT,MEAN_MOTION_DDOT,TLE_LINE0,TLE_LINE1,TLE_LINE2,SEMIMAJOR_AXIS,PERIOD,APOGEE,PERIGEE,DECAYED
51814.0,STARLINK-3599,PAYLOAD,2022-05-09 14:00:01,15.66626726,0.0001052,53.2172,142.7101,64.8548,300.7671,-0.0073161999999999,-0.00717015,0.0,0 STARLINK-3599,1 51814U 22017AY  22129.58335648 -.00717015  00000-0 -73162-2 0  9993,2 51814  53.2172 142.7101 0001052  64.8548 300.7671 15.66626726  3701,6746.701,91.917,369.276,367.857,0.0
51814.0,STARLINK-3599,PAYLOAD,2022-05-09 22:00:00,15.6611573,0.0001208,53.2173,141.0772,54.8017,31.4733,-0.0074682,-0.00716927,0.0,0 STARLINK-3599,1 51814U 22017AY  22129.91667824 -.00716927  00000-0 -74682-2 0  9993,2 51814  53.2173 141.0772 0001208  54.8017  31.4733 15.66115730  3694,6748.169,91.947,370.849,369.219,0.0
51814.0,STARLINK-3599,PAYLOAD,2022-05-10 04:00:00,15.65735169,0.0001322,53.2176,139.8558,47.5682,8.8403,-0.0076092,-0.00719137,0.0,0 STARLINK-3599,1 51814U 22017AY  22130.16667824 -.00719137  00000-0 -76092-2 0  9995,2 51814  53.2176 139.8558 0001322  47.5682   8.8403 15.65735169 12806,6749.262,91.97,372.02,370.235,0.0
51814.0,STARLINK-3599,PAYLOAD,2022-05-10 14:00:01,15.65097583,0.0001236,53.2172,137.8207,66.5513,179.3158,-0.0078069,-0.00719105,0.0,0 STARLINK-3599,1 51814U 22017AY  22130.58334491 -.00719105  00000-0 -78069-2 0  9993,2 51814  53.2172 137.8207 0001236  66.5513 179.3158 15.65097583  3700,6751.095,92.007,373.795,372.126,0.0
51814.0,STARLINK-3599,PAYLOAD,2022-05-10 18:00:00,15.64840812,0.0001254,53.2173,137.0054,57.4001,47.9837,-0.0078412,-0.00715212,0.0,0 STARLINK-3599,1 51814U 22017AY  22130.75001157 -.00715212  00000-0 -78412-2 0  9999,2 51814  53.2173 137.0054 0001254  57.4001  47.9837 15.64840812  3685,6751.834,92.022,374.545,372.852,0.0
51814.0,STARLINK-3599,PAYLOAD,2022-05-11 20:00:01,15.63181682,0.0001189,53.2174,131.7238,54.7739,33.7275,-0.0083457,-0.00712801,0.0,0 STARLINK-3599,1 51814U 22017AY  22131.83334491 -.00712801  00000-0 -83457-2 0  9995,2 51814  53.2174 131.7238 0001189  54.7739  33.7275 15.63181682 13060,6756.61,92.12,379.279,377.672,0.0
51814.0,STARLINK-3599,PAYLOAD,2022-05-11 22:00:00,15.63056477,0.0001338,53.2172,131.3176,61.7368,135.9663,-0.0084377999999999,-0.00716788,0.0,0 STARLINK-3599,1 51814U 22017AY  22131.91667824 -.00716788  00000-0 -84378-2 0  9994,2 51814  53.2172 131.3176 0001338  61.7368 135.9663 15.63056477  1300,6756.971,92.127,379.74,377.932,0.0
51814.0,STARLINK-3599,PAYLOAD,2022-05-12 14:00:01,15.62036922,0.0001022,53.2174,128.0761,76.48100000000002,273.4613,-0.0087796,-0.00716489,0.0,0 STARLINK-3599,1 51814U 22017AY  22132.58334491 -.00716489  00000-0 -87796-2 0  9994,2 51814  53.2174 128.0761 0001022  76.4810 273.4613 15.62036922  1305,6759.911,92.187,382.467,381.085,0.0
51814.0,STARLINK-3599,PAYLOAD,2022-05-12 20:00:01,15.616516,0.0001121,53.2175,126.8597,66.6125,249.7901,-0.0088531,-0.007121,0.0,0 STARLINK-3599,1 51814U 22017AY  22132.83334491 -.00712100  00000-0 -88531-2 0  9996,2 51814  53.2175 126.8597 0001121  66.6125 249.7901 15.61651600 13224,6761.023,92.21,383.646,382.13,0.0
51814.0,STARLINK-3599,PAYLOAD,2022-05-12 22:00:00,15.61525565,0.0001174,53.2175,126.4547,59.739,5.4061,-0.0089369,-0.00715063,0.0,0 STARLINK-3599,1 51814U 22017AY  22132.91667824 -.00715063  00000-0 -89369-2 0  9995,2 51814  53.2175 126.4547 0001174  59.7390   5.4061 15.61525565  1300,6761.387,92.218,384.045,382.458,0.0
51814.0,STARLINK-3599,PAYLOAD,2022-05-13 14:00:01,15.60507573,0.0001264,53.2172,123.2203,73.3675,140.3399,-0.0093376,-0.00717939,0.0,0 STARLINK-3599,1 51814U 22017AY  22133.58334491 -.00717939  00000-0 -93376-2 0  9997,2 51814  53.2172 123.2203 0001264  73.3675 140.3399 15.60507573  1300,6764.3269999999975,92.278,387.047,385.337,0.0
51814.0,STARLINK-3599,PAYLOAD,2022-05-13 20:00:01,15.60123062,0.0001224,53.2172,122.0068,75.1128,103.6753,-0.0094187999999999,-0.00713872,0.0,0 STARLINK-3599,1 51814U 22017AY  22133.83334491 -.00713872  00000-0 -94188-2 0  9999,2 51814  53.2172 122.0068 0001224  75.1128 103.6753 15.60123062 13378,6765.438,92.3,388.131,386.475,0.0
51814.0,STARLINK-3599,PAYLOAD,2022-05-13 22:00:00,15.59995075,0.0001166,53.2174,121.6027,83.6593,203.4124,-0.0094572,-0.00713297,0.0,0 STARLINK-3599,1 51814U 22017AY  22133.91667824 -.00713297  00000-0 -94572-2 0  9995,2 51814  53.2174 121.6027 0001166  83.6593 203.4124 15.59995075  1305,6765.808000000001,92.308,388.462,386.884,0.0
51814.0,STARLINK-3599,PAYLOAD,2022-05-14 14:00:01,15.58976055,0.0001074,53.2172,118.3759,70.3481,1.6095,-0.0098508,-0.00714403,0.0,0 STARLINK-3599,1 51814U 22017AY  22134.58334491 -.00714403  00000-0 -98508-2 0  9993,2 51814  53.2172 118.3759 0001074  70.3481   1.6095 15.58976055  1306,6768.755999999999,92.368,391.348,389.894,0.0
51814.0,STARLINK-3599,PAYLOAD,2022-05-14 20:00:01,15.5859231,0.0001066,53.2172,117.1651,66.7966,328.86300000000006,-0.0099739,-0.00712955,0.0,0 STARLINK-3599,1 51814U 22017AY  22134.83334491 -.00712955  00000-0 -99739-2 0  9998,2 51814  53.2172 117.1651 0001066  66.7966 328.8630 15.58592310 13537,6769.8669999999975,92.391,392.454,391.011,0.0
51814.0,STARLINK-3599,PAYLOAD,2022-05-14 22:00:00,15.58466679,0.0001268,53.2174,116.762,67.3866,76.0957,-0.010053,-0.00715035,0.0,0 STARLINK-3599,1 51814U 22017AY  22134.91667824 -.00715035  00000-0 -10053-1 0  9999,2 51814  53.2174 116.7620 0001268  67.3866  76.0957 15.58466679  1304,6770.231,92.399,392.955,391.23800000000006,0.0
51814.0,STARLINK-3599,PAYLOAD,2022-05-15 14:00:01,15.57447517,0.0001158,53.2174,113.5421,85.2628,199.4942,-0.010479,-0.00716923,0.0,0 STARLINK-3599,1 51814U 22017AY  22135.58335648 -.00716923  00000-0 -10479-1 0  9998,2 51814  53.2174 113.5421 0001158  85.2628 199.4942 15.57447517  1304,6773.184,92.459,395.834,394.265,0.0
51814.0,STARLINK-3599,PAYLOAD,2022-05-15 20:00:01,15.57062862,0.0001240999999999,53.2173,112.3343,76.8452,170.1702,-0.010568,-0.00712986,0.0,0 STARLINK-3599,1 51814U 22017AY  22135.83334491 -.00712986  00000-0 -10568-1 0  9995,2 51814  53.2173 112.3343 0001241  76.8452 170.1702 15.57062862 13687,6774.3,92.482,397.005,395.324,0.0
51814.0,STARLINK-3599,PAYLOAD,2022-05-15 22:00:00,15.56934549,0.0001084,53.2176,111.9325,76.6703,277.7091,-0.010588,-0.00711043,0.0,0 STARLINK-3599,1 51814U 22017AY  22135.91667824 -.00711043  00000-0 -10588-1 0  9998,2 51814  53.2176 111.9325 0001084  76.6703 277.7091 15.56934549  1307,6774.672,92.489,397.271,395.80300000000005,0.0
51814.0,STARLINK-3599,PAYLOAD,2022-05-16 14:00:01,15.55916776,0.0001177,53.2172,108.7198,75.0564,56.8554,-0.011063,-0.00714854,0.0,0 STARLINK-3599,1 51814U 22017AY  22136.58334491 -.00714854  00000-0 -11063-1 0  9995,2 51814  53.2172 108.7198 0001177  75.0564  56.8554 15.55916776  1307,6777.626,92.55,400.289,398.693,0.0
51814.0,STARLINK-3599,PAYLOAD,2022-05-16 20:00:01,15.55533479,0.0001141,53.2172,107.5148,71.8113,21.0447,-0.011211,-0.00714209,0.0,0 STARLINK-3599,1 51814U 22017AY  22136.83334491 -.00714209  00000-0 -11211-1 0  9992,2 51814  53.2172 107.5148 0001141  71.8113  21.0447 15.55533479 13846,6778.739000000001,92.573,401.378,399.831,0.0
51814.0,STARLINK-3599,PAYLOAD,2022-05-16 22:00:00,15.55406334,0.0001298,53.2174,107.1138,77.8519,121.9078,-0.011239,-0.0071278,0.0,0 STARLINK-3599,1 51814U 22017AY  22136.91667824 -.00712780  00000-0 -11239-1 0  9992,2 51814  53.2174 107.1138 0001298  77.8519 121.9078 15.55406334  1309,6779.109,92.58,401.854,400.094,0.0
51814.0,STARLINK-3599,PAYLOAD,2022-05-17 14:00:01,15.54387273,0.000108,53.2174,103.9084,93.8019,239.8791,-0.011718,-0.00715395,0.0,0 STARLINK-3599,1 51814U 22017AY  22137.58335648 -.00715395  00000-0 -11718-1 0  9999,2 51814  53.2174 103.9084 0001080  93.8019 239.8791 15.54387273  1305,6782.071,92.641,404.669,403.204,0.0
51814.0,STARLINK-3599,PAYLOAD,2022-05-17 20:00:01,15.5400217,0.0001174,53.2173,102.7062,79.3237,213.8585,-0.011808,-0.00711155,0.0,0 STARLINK-3599,1 51814U 22017AY  22137.83334491 -.00711155  00000-0 -11808-1 0  9992,2 51814  53.2173 102.7062 0001174  79.3237 213.8585 15.54002170 14006,6783.191999999999,92.664,405.853,404.26,0.0
51814.0,STARLINK-3599,PAYLOAD,2022-05-17 22:00:01,15.53875208,0.0001116,53.2174,102.3063,72.2095,327.4817,-0.011864,-0.00711191,0.0,0 STARLINK-3599,1 51814U 22017AY  22137.91668981 -.00711191  00000-0 -11864-1 0  9997,2 51814  53.2174 102.3063 0001116  72.2095 327.4817 15.53875208  1302,6783.561,92.672,406.1830000000001,404.669,0.0
51814.0,STARLINK-3599,PAYLOAD,2022-05-18 14:00:01,15.52857716,0.0001212,53.2174,99.1081,82.9986,86.8069,-0.012396,-0.00715573,0.0,0 STARLINK-3599,1 51814U 22017AY  22138.58334491 -.00715573  00000-0 -12396-1 0  9996,2 51814  53.2174  99.1081 0001212  82.9986  86.8069 15.52857716  1307,6786.524,92.732,409.212,407.567,0.0
51814.0,STARLINK-3599,PAYLOAD,2022-05-18 20:00:01,15.52474229,0.0001227,53.2175,97.9089,72.0701,55.9218,-0.012539,-0.00713958,0.0,0 STARLINK-3599,1 51814U 22017AY  22138.83334491 -.00713958  00000-0 -12539-1 0  9998,2 51814  53.2175  97.9089 0001227  72.0701  55.9218 15.52474229 14157,6787.642,92.755,410.34,408.674,0.0
51814.0,STARLINK-3599,PAYLOAD,2022-05-18 22:00:00,15.52346452,0.0001293,53.2176,97.5099,79.8546,154.1222,-0.012564,-0.00712242,0.0,0 STARLINK-3599,1 51814U 22017AY  22138.91667824 -.00712242  00000-0 -12564-1 0  9999,2 51814  53.2176  97.5099 0001293  79.8546 154.1222 15.52346452  1306,6788.014,92.763,410.757,409.001,0.0
51814.0,STARLINK-3599,PAYLOAD,2022-05-19 14:00:01,15.51326961,0.0001061,53.2176,94.3188,89.3987,271.1461,-0.013074,-0.00723299,0.0,0 STARLINK-3599,1 51814U 22017AY  22139.58335648 -.00723299  00000-0 -13074-1 0  9990,2 51814  53.2176  94.3188 0001061  89.3987 271.1461 15.51326961  1316,6790.988,92.824,413.573,412.132,0.0
